ENVISAT                 
1 27386U 02009A   23098.58069750  .00000363  00000+0  13301-3 0  9991
2 27386  98.2248  71.4684 0001391  85.2108 341.0071 14.38309136105885
IDEFIX & ARIANE 42P R/B 
1 27422U 02021B   23098.40518801  .00000474  00000+0  20152-3 0  9998
2 27422  98.4855  41.1039 0013412  87.3602 272.9116 14.29641048 91594
AQUA                    
1 27424U 02022A   23098.56395310  .00001436  00000+0  32328-3 0  9993
2 27424  98.2816  43.2514 0001940  63.1444  51.9180 14.57920953113172
CZ-4B R/B               
1 27432U 02024C   23098.57774762  .00000073  00000+0  61242-4 0  9991
2 27432  99.0316 132.4281 0050763 162.1456 312.6574 14.14199478 78534
MIDORI II (ADEOS-II)    
1 27597U 02056A   23098.45341231  .00000521  00000+0  22844-3 0  9998
2 27597  98.6428  43.4442 0000635 133.2905 226.8329 14.27854272 58060
H-2A R/B                
1 27601U 02056E   23098.53382334  .00000478  00000+0  18612-3 0  9991
2 27601  98.1908  93.5649 0073112 100.8228   7.5522 14.32305423 61414
CZ-4B R/B               
1 28059U 03049C   23098.47457515  .00000588  00000+0  15184-3 0  9992
2 28059  98.5542  45.4416 0048499 245.7901 113.8221 14.53106408 31650
CZ-2C R/B               
1 28222U 04012C   23098.49496316  .00008336  00000+0  42256-3 0  9998
2 28222  97.8011  90.9475 0043210 118.6785 241.8801 15.16401799 40881
SL-16 R/B               
1 28353U 04021B   23098.00727726 -.00000216  00000+0 -88255-4 0  9993
2 28353  71.0002 310.4734 0006903 233.9065 126.1418 14.14314214971994
CZ-4B R/B               
1 28415U 04035C   23098.55419783  .00004759  00000+0  28592-3 0  9999
2 28415  97.4770 137.2974 0049613  88.1742 272.5169 15.10316250 18108
CZ-2C R/B               
1 28480U 04046B   23098.47517695  .00000329  00000+0  13870-3 0  9997
2 28480  98.1047  68.5252 0142666  68.6866 292.9478 14.25990159956484
ARIANE 5 R/B            
1 28499U 04049H   23098.53278253  .00001939  00000+0  24032-3 0  9991
2 28499  98.1243 223.5606 0090135 200.4541 290.7131 14.81078561987748
CZ-2D R/B               
1 28738U 05024B   23098.50613755  .00007774  00000+0  39425-3 0  9993
2 28738  97.3556 101.9949 0009145 225.1151 134.9341 15.17177708976421
SUZAKU (ASTRO-EII)      
1 28773U 05025A   23098.52649172  .00012994  00000+0  47596-3 0  9995
2 28773  31.3777 166.6091 0003835 135.6404 224.4554 15.26784645980054
ALOS (DAICHI)           
1 28931U 06002A   23098.47040310  .00002191  00000+0  42702-3 0  9992
2 28931  97.9801  58.0984 0002580  86.2418 273.9074 14.63979144917576
H-2A R/B                
1 28932U 06002B   23098.22908256  .00004591  00000+0  39164-3 0  9992
2 28932  98.2468 161.4599 0083066 202.7205 157.0330 14.95611393934062
AKARI (ASTRO-F)         
1 28939U 06005A   23098.24460938  .01771878  28993-5  99629-3 0  9993
2 28939  98.1644 221.5140 0022140 272.4521  87.4268 16.18631798939064
RESURS-DK 1             
1 29228U 06021A   23098.50930382  .00002717  00000+0  20068-3 0  9999
2 29228  69.9341  96.5312 0006965 304.2655  55.7847 15.04490053926738
GENESIS 1               
1 29252U 06029A   23098.54626456  .00011063  00000+0  43685-3 0  9996
2 29252  64.5206 179.5311 0033633 220.5677 139.2943 15.25402151923897
CZ-4B R/B               
1 29507U 06046C   23098.51582874  .00004288  00000+0  31259-3 0  9995
2 29507  97.6934 132.1294 0043099 317.9453  41.8467 15.03532143899173
CZ-2C R/B               
1 31114U 07010B   23098.41018032  .00000307  00000+0  16131-3 0  9993
2 31114  98.2699 256.5695 0060144 156.9116 203.4785 14.19545518828401
COSMO-SKYMED 1          
1 31598U 07023A   23098.55807399  .00000231  00000+0  35622-4 0  9993
2 31598  97.8866 283.0407 0001390  94.3373 265.8069 14.82152347856673
GENESIS 2               
1 31789U 07028A   23098.51537703  .00011847  00000+0  46964-3 0  9990
2 31789  64.4950 223.6081 0059172 271.1122  88.3225 15.24122469870784
COSMOS 2428             
1 31792U 07029A   23098.56796146 -.00000233  00000+0 -99914-4 0  9991
2 31792  70.9350 280.8878 0010350 326.3563  33.6900 14.12559295813529
SL-16 R/B               
1 31793U 07029B   23098.56494476 -.00000006  00000+0  21943-4 0  9997
2 31793  70.9736 252.8756 0002113 253.1769 173.6226 14.14521266814598
KORONAS-FOTON           
1 33504U 09003A   23098.55483269  .00005956  00000+0  27679-3 0  9999
2 33504  82.4369 281.1137 0016961 329.6362  30.3888 15.19669425782731
CZ-2C R/B               
1 37731U 11030B   23098.56056001  .00001490  00000+0  21881-3 0  9997
2 37731  97.7086  75.5911 0057274 211.2044 265.3372 14.75839374632568
H-2A R/B                
1 38341U 12025E   23098.44605710  .00001869  00000+0  21672-3 0  9992
2 38341  98.4657 337.8375 0053678 175.6808 184.4880 14.85788300589436
CUSAT 2 & FALCON 9 R/B  
1 39271U 13055G   23098.45932648  .00028039  00000+0  53308-3 0  9992
2 39271  80.9535 226.7250 0462342 280.0833  74.8532 14.79422827500115
SHIJIAN-16 (SJ-16)      
1 39358U 13057A   23098.57093038  .00002949  00000+0  33176-3 0  9997
2 39358  74.9755  34.6927 0019269 173.8870 186.2553 14.86923509512846
CZ-2C R/B               
1 39364U 13059B   23098.10912543  .00021204  00000+0  52306-3 0  9997
2 39364  97.1136 146.9466 0034502 354.8995   5.1895 15.39925321525399
SL-4 R/B                
1 39679U 14021B   23098.22648315  .00005035  00000+0  23115-3 0  9992
2 39679  51.6155  20.5597 0154749 265.3077  93.0208 15.12151143493650
ALOS-2                  
1 39766U 14029A   23098.41936909 -.00000007  00000+0  59715-5 0  9999
2 39766  97.9187 196.3157 0001575  93.2556 266.8851 14.79472191479241
SL-27 R/B               
1 40354U 14084B   23098.57750727  .00019429  00000+0  33622-3 0  9998
2 40354  74.7357  58.9082 0026237  91.0055 269.4169 15.50466279466214
YAOGAN-29               
1 41038U 15069A   23098.39484595  .00000998  00000+0  13498-3 0  9999
2 41038  98.0640 105.1501 0000869 126.1484 233.9813 14.81242486397948
ASTRO-H (HITOMI)        
1 41337U 16012A   23098.14824014  .00003423  00000+0  25686-3 0  9995
2 41337  31.0051 347.7232 0011380 123.8764 236.2956 15.00745423391403
HXMT (HUIYAN)           
1 42758U 17034A   23098.43559947  .00008006  00000+0  46799-3 0  9990
2 42758  43.0169 163.6693 0009932 312.5047 167.1590 15.12161838320819
CZ-2C R/B               
1 43521U 18054D   23098.03505360  .00009370  00000+0  42951-3 0  9999
2 43521  35.1526 330.6837 0071378 177.5821 182.5251 15.17430288264371
AEOLUS                  
1 43600U 18066A   23098.00121360  .00030350  00000+0  12364-3 0  9998
2 43600  96.7234 104.4302 0004621 127.9843 232.1847 15.86112973267833
SAOCOM 1A               
1 43641U 18076A   23098.49895924  .00001312  00000+0  17128-3 0  9990
2 43641  97.8879 285.9836 0001301  88.6254 271.5137 14.82157068243431
H-2A R/B                
1 43682U 18084L   23098.49963618  .00007776  00000+0  49972-3 0  9992
2 43682  98.9002 111.6864 0052034  15.3299 344.9487 15.07656807243714
SAOCOM 1B               
1 46265U 20059A   23098.53007214  .00000635  00000+0  86368-4 0  9991
2 46265  97.8898 285.0866 0001510  98.7150 261.4259 14.82146623140838
CSS (TIANHE)            
1 48274U 21035A   23098.42563804  .00039119  00000+0  40251-3 0  9997
2 48274  41.4734 221.1909 0003551 301.6558 130.2432 15.64098205110924
2022-019U               
1 51842U 22019U   23098.53471902  .00022971  00000+0  72365-3 0  9993
2 51842  97.5295 184.0701 0058217 228.9115 256.2918 15.31233446 61799
CZ-2C R/B               
1 52794U 22058K   23098.38540432  .00009109  00000+0  45410-3 0  9990
2 52794  50.1723 203.9475 0096739 187.8688 172.0753 15.14187618 46914
CZ-2C R/B               
1 53131U 22082D   23098.55475581  .00026178  00000+0  53575-3 0  9990
2 53131  97.3519 112.5872 0042053 129.6118 230.8855 15.45111378 41010
